IRIDIUM 144             
1 43249U 18030A   24038.42661174 -.00000005  00000+0 -89802-5 0  9990
2 43249  86.3958 290.1468 0001831  87.9707 272.1698 14.34217672306768
IRIDIUM 149             
1 43250U 18030B   24038.43295567  .00000010  00000+0 -33309-5 0  9998
2 43250  86.3958 290.1204 0001905  90.3877 269.7538 14.34217635306782
IRIDIUM 157             
1 43251U 18030C   24038.45198349  .00000198  00000+0  63634-4 0  9990
2 43251  86.3960 290.1471 0002218  80.0496 280.0950 14.34218986306765
IRIDIUM 140             
1 43252U 18030D   24038.61054690  .00000072  00000+0  18819-4 0  9995
2 43252  86.3960 290.0952 0001708  92.1746 267.9645 14.34218093306847
IRIDIUM 145             
1 43253U 18030E   24038.38855723  .00000209  00000+0  67458-4 0  9991
2 43253  86.3959 290.1622 0002018  95.3536 264.7890 14.34218480306744
IRIDIUM 146             
1 43254U 18030F   24038.43929596  .00000282  00000+0  93735-4 0  9996
2 43254  86.3959 290.1563 0001977  95.7297 264.4125 14.34219630306768
IRIDIUM 148             
1 43255U 18030G   24038.12851098  .00000159  00000+0  49682-4 0  9999
2 43255  86.3960 290.3162 0002348  90.5398 269.6067 14.34218429306752
IRIDIUM 142             
1 43256U 18030H   24038.44564074  .00000147  00000+0  45393-4 0  9992
2 43256  86.3957 290.1036 0002160  95.1022 265.0421 14.34217958306765
